DTUSAT                  
1 27842U 03031C   09121.98625479  .00000019  00000-0  28860-4 0  5458
2 27842  98.7070 132.7845 0008523 258.5488 101.4727 14.20976873302783
CUTE-1 (CO-55)          
1 27844U 03031E   09122.21226624  .00000008  00000-0  23867-4 0  5692
2 27844  98.7145 132.0280 0008894 277.3177  82.6988 14.20634206302734
QUAKESAT                
1 27845U 03031F   09122.57266090  .00000036  00000-0  37555-4 0  5446
2 27845  98.7205 131.7856 0008234 297.2907  62.7435 14.20264734302693
AAU CUBESAT             
1 27846U 03031G   09122.54918376  .00000028  00000-0  33354-4 0  4808
2 27846  98.7071 133.3335 0008498 256.6188 103.4030 14.20977062302865
CANX-1                  
1 27847U 03031H   09121.99387635  .00000011  00000-0  25257-4 0  4945
2 27847  98.7062 132.7776 0008594 259.6154 100.4076 14.20959772302732
CUBESAT XI-IV (CO-57)   
1 27848U 03031J   09121.97207449  .00000029  00000-0  34133-4 0  5154
2 27848  98.7159 130.8525 0009021 285.0100  75.0075 14.20437039302666
UWE-1                   
1 28892U 05043C   09122.72731688  .00000175  00000-0  46060-4 0  3264
2 28892  98.0611  14.0960 0018330 127.7393 232.5489 14.59729940187215
CUBESAT XI-V (CO-58)    
1 28895U 05043F   09122.34462842  .00000143  00000-0  39350-4 0  2918
2 28895  98.0664  14.2334 0018707 128.5768 231.7100 14.59763424187043
NCUBE-2                 
1 28897U 05043H   09122.13403382  .00000110  00000-0  32423-4 0  8375
2 28897  98.0630  13.9380 0017866 129.9289 230.3502 14.59940319179304
CUTE-1.7+APD (CO-56)    
1 28941U 06005C   09122.54651300  .00031571  29979-5  12844-3 0   422
2 28941  98.1357 288.6181 0096334 303.5278  55.6824 15.79567546180033
GENESAT-1               
1 29655U 06058C   09122.37317330  .00010164  00000-0  10479-3 0  6989
2 29655  40.0242 110.1824 0000673 287.9700  72.1042 15.64622046135299
CSTB1                   
1 31122U 07012F   09121.79966011  .00000554  00000-0  13192-3 0  6238
2 31122  97.9987 180.8393 0086506  58.9634 301.9992 14.55235990108412
MAST                    
1 31126U 07012K   09122.04938541  .00000097  00000-0  32297-4 0  5844
2 31126  97.9917 178.9573 0095831  63.3465 297.7514 14.53492835108334
LIBERTAD-1              
1 31128U 07012M   09122.67141331 -.00000046  00000-0  00000+0 0  6194
2 31128  97.9904 177.8215 0104014  66.5269 294.6835 14.52037613108299
POLYSAT CP3             
1 31129U 07012N   09122.69514218  .00000124  00000-0  39150-4 0  8916
2 31129  97.9930 177.9422 0103575  66.1523 295.0483 14.52126907108288
CAPE1                   
1 31130U 07012P   09122.11150304  .00000151  00000-0  45253-4 0  5892
2 31130  97.9956 177.3053 0103987  68.5020 292.7224 14.52053552108009
POLYSAT CP4             
1 31132U 07012Q   09122.14625506  .00000135  00000-0  39801-4 0  5959
2 31132  97.9988 181.0997 0086634  57.4068 303.5456 14.55201483108338
NTS (CANX-6)            
1 32784U 08021B   09122.70889350 -.00000062  00000-0 -10503-5 0  3571
2 32784  97.9473 186.8730 0016322 170.0373 190.1173 14.81038022 54698
CUTE-1.7+APD II         
1 32785U 08021C   09122.19711122 -.00000115  00000-0 -77999-5 0  3533
2 32785  97.9461 186.5347 0014986 176.4493 183.6827 14.81473338 54634
COMPASS-1               
1 32787U 08021E   09122.17761905  .00000127  00000-0  22914-4 0  3455
2 32787  97.9441 186.3823 0015754 177.6194 182.5092 14.81587644 54634
AAUSAT-II               
1 32788U 08021F   09122.82460732  .00000466  00000-0  65773-4 0  3470
2 32788  97.9465 187.0771 0015785 176.1676 183.9643 14.81711685 54736
DELFI-C3                
1 32789U 08021G   09122.17030118  .00000427  00000-0  60945-4 0  3552
2 32789  97.9504 186.5608 0015678 176.8313 183.3002 14.81680771 54633
CANX-2                  
1 32790U 08021H   09121.72648004 -.00000136  00000-0 -10560-4 0  3404
2 32790  97.9488 186.0437 0015772 178.5475 181.5785 14.81460173 54544
SEEDS II                
1 32791U 08021J   09122.75556543  .00000395  00000-0  57180-4 0  3386
2 32791  97.9475 186.9882 0015982 174.1708 185.9693 14.81422556 54682
PSLV DEB                
1 32797U 08021L   09115.65114190  .00002213  00000-0  27881-3 0  1586
2 32797  97.9725 180.9769 0016122 200.8978 159.2324 14.82934099 52377
